STARLINK-32619          
1 62074U 24217T   26158.85675137  .00049430  00000+0  14628-2 0  9991
2 62074  53.1590 134.5635 0001313  57.8336 302.2794 15.34435612 87232
STARLINK-32580          
1 62075U 24217U   26158.59428155  .00026834  00000+0  91486-3 0  9990
2 62075  53.1585 123.6942 0001328  79.1023 281.0127 15.30200082 87368
STARLINK-32617          
1 62076U 24217V   26158.17600882  .00033909  00000+0  11509-2 0  9992
2 62076  53.1596 125.3475 0002268  95.8667 264.2592 15.30223281 87303
SUPERVIEW NEO-2 03      
1 62079U 24218B   26158.57017694  .00002625  00000+0  12609-3 0  9997
2 62079  97.4397 166.0388 0001667  88.0657 272.0769 15.19719148 84989
SUPERVIEW NEO-2 04      
1 62080U 24218C   26158.57017545  .00000218  00000+0  13386-4 0  9994
2 62080  97.4399 166.0438 0001368 113.1490 246.9889 15.19717443 84981
KINEIS-5C               
1 62081U 24219A   26158.88476036  .00000823  00000+0  13794-3 0  9998
2 62081  97.9034 317.9966 0003098 330.5756  29.5277 14.72269673 82381
KINEIS-5D               
1 62082U 24219B   26158.84762659  .00001155  00000+0  18987-3 0  9992
2 62082  97.9145 317.9675 0003752 314.1907  45.8991 14.72430453 82385
KINEIS-5E               
1 62083U 24219C   26158.79605061  .00000769  00000+0  12870-3 0  9995
2 62083  97.8989 318.0180 0005072 303.2967  56.7755 14.72527448 82386
KINEIS-5A               
1 62084U 24219D   26158.09014810  .00004367  00000+0  70356-3 0  9996
2 62084  97.8935 317.6489 0004031   1.3408 358.7809 14.71972805 82289
KINEIS-5B               
1 62085U 24219E   26158.84239218  .00001324  00000+0  18934-3 0  9995
2 62085  98.0059 322.7320 0000866 350.9708   9.1487 14.78311786 82628
STARLINK-11384 [DTC]    
1 62088U 24220A   26157.60880450  .00221270  00000+0  16785-2 0  9998
2 62088  42.9991 227.4773 0001607 256.7004 103.3684 15.70894976 89031
STARLINK-11379 [DTC]    
1 62089U 24220B   26158.55725891  .00135068  00000+0  10388-2 0  9993
2 62089  42.9989 221.6831 0001882 303.6720  56.3968 15.70846086 89088
STARLINK-11387 [DTC]    
1 62090U 24220C   26157.47101492 -.00002813  00000+0 -18428-4 0  9998
2 62090  43.0046 228.1559 0000745 259.0566 101.0218 15.70858414 89011
STARLINK-11389 [DTC]    
1 62091U 24220D   26158.61022432  .00154511  00000+0  11843-2 0  9995
2 62091  43.0001 221.2139 0001450 299.7464  60.3260 15.70861449 89097
STARLINK-11388 [DTC]    
1 62092U 24220E   26158.47774300  .00170733  00000+0  13062-2 0  9997
2 62092  42.9977 221.9359 0000434 191.9722 168.1136 15.70852514 89070
STARLINK-11345 [DTC]    
1 62093U 24220F   26158.59960257  .00117292  00000+0  90402-3 0  9994
2 62093  43.0008 221.1296 0001611 294.9055  65.1645 15.70858598 89092
STARLINK-11381 [DTC]    
1 62094U 24220G   26158.21278913  .00173756  00000+0  13301-2 0  9994
2 62094  42.9994 223.3883 0002179 329.3498  30.7242 15.70827807 89039
STARLINK-11369 [DTC]    
1 62095U 24220H   26158.46181375  .00279996  00000+0  20886-2 0  9996
2 62095  42.9996 221.8083 0002335 239.3546 120.7092 15.71115044 89177
STARLINK-11303 [DTC]    
1 62096U 24220J   26158.58367440  .00120915  00000+0  93122-3 0  9999
2 62096  42.9977 221.0043 0002068 284.6679  75.3959 15.70863284 89192
STARLINK-11367 [DTC]    
1 62097U 24220K   26158.45119705  .00124276  00000+0  95622-3 0  9996
2 62097  42.9972 221.7227 0000336 229.5480 130.5358 15.70874148 89179
STARLINK-11386 [DTC]    
1 62098U 24220L   26158.57305473  .00149519  00000+0  11468-2 0  9991
2 62098  42.9975 220.9167 0001589 271.0022  89.0664 15.70863455 89090
STARLINK-11380 [DTC]    
1 62099U 24220M   26157.61398190  .00176127  00000+0  13441-2 0  9992
2 62099  42.9990 226.6217 0001481 260.4678  99.6023 15.70895180 88946
STARLINK-33566          
1 62100U 24220N   26156.97933668  .00025517  00000+0  93257-3 0  9998
2 62100  43.0017  52.2240 0001486 253.4923 106.5766 15.27615495 86862
STARLINK-33545          
1 62101U 24220P   26158.00445308  .00022368  00000+0  81919-3 0  9997
2 62101  43.0002  60.8887 0001833 257.4773 102.5874 15.27608472 86685
STARLINK-33562          
1 62102U 24220Q   26158.40833723  .00016731  00000+0  61601-3 0  9997
2 62102  42.9922  58.7570 0002679 277.9731  82.0816 15.27585374 86740
STARLINK-33554          
1 62103U 24220R   26156.88902691  .00023396  00000+0  85774-3 0  9991
2 62103  43.0011  67.1395 0001374 274.0924  85.9771 15.27552825 86448
STARLINK-33555          
1 62104U 24220S   26158.03400720  .00029947  00000+0  10937-2 0  9993
2 62104  42.9995  61.1110 0001320 275.2473  84.8228 15.27571047 86824
STARLINK-33559          
1 62107U 24220V   26158.42246691  .00017698  00000+0  65083-3 0  9997
2 62107  42.9891  58.8683 0002477 270.2970  89.7597 15.27592602 86914
STARLINK-33553          
1 62108U 24220W   26158.41476000  .00020432  00000+0  74967-3 0  9997
2 62108  42.9935  58.8076 0002421 283.4755  76.5827 15.27591400 86911
STARLINK-33556          
1 62109U 24220X   26158.00831090  .00016696  00000+0  61455-3 0  9992
2 62109  42.9988  60.9194 0000676 251.7002 108.3776 15.27596012 86874
STARLINK-33551          
1 62110U 24220Y   26158.41861252  .00022282  00000+0  81629-3 0  9995
2 62110  43.0008  58.8384 0002458 279.7044  80.3530 15.27598257 86919
GUANGCHUAN 01           
1 62111U 24221A   26158.60320464  .00003885  00000+0  22373-3 0  9992
2 62111  49.9422 208.8072 0007678 263.1845  96.8232 15.14577271 84739
GUANGCHUAN 02           
1 62112U 24221B   26158.60588977  .00004155  00000+0  23835-3 0  9993
2 62112  49.9408 208.7371 0006946 307.3254  52.7063 15.14544982 84722
STARLINK-32311          
1 62114U 24222A   26158.21352169  .00016813  00000+0  61883-3 0  9994
2 62114  43.0052 335.6215 0002674 270.9360  89.1186 15.27593782 86771
STARLINK-32470          
1 62115U 24222B   26158.80921581  .00022939  00000+0  84083-3 0  9993
2 62115  43.0012 347.0662 0001115 243.5293 116.5444 15.27568297 86686
STARLINK-32502          
1 62116U 24222C   26158.83105990  .00024975  00000+0  91420-3 0  9990
2 62116  43.0002 347.2223 0000219 264.8108  95.2719 15.27574077 86597
STARLINK-32521          
1 62117U 24222D   26158.81738862  .00027580  00000+0  10085-2 0  9991
2 62117  43.0023 343.5480 0001276 252.5321 107.5391 15.27565062 86575
STARLINK-32549          
1 62118U 24222E   26158.79507911  .00028139  00000+0  10278-2 0  9993
2 62118  43.0012 346.9578 0000575 213.9125 146.1690 15.27590746 86593
STARLINK-32535          
1 62119U 24222F   26158.66668980 -.00001469  00000+0 -43901-4 0  9994
2 62119  43.0033 344.8072 0001561 282.3281 207.6345 15.27560304  5826
STARLINK-32548          
1 62120U 24222G   26158.25670169  .00011107  00000+0  41212-3 0  9993
2 62120  43.0025 350.6546 0001129 269.6727  90.3996 15.27614580 86456
STARLINK-32525          
1 62121U 24222H   26158.80150348  .00031246  00000+0  11403-2 0  9991
2 62121  43.0002 346.9986 0001086 202.6752 157.4052 15.27577827 86545
STARLINK-32628          
1 62122U 24222J   26158.23100914  .00015419  00000+0  56864-3 0  9998
2 62122  42.9987 350.4620 0001161 271.2821  88.7898 15.27580580 86616
STARLINK-32626          
1 62123U 24222K   26158.25026705  .00001173  00000+0  52180-4 0  9996
2 62123  43.0024 350.6045 0004898 269.2418  90.7873 15.27583738 86448
STARLINK-32608          
1 62124U 24222L   26158.22457553  .00030630  00000+0  11167-2 0  9991
2 62124  43.0050 350.4133 0003061 270.7577  89.2924 15.27614218 86435
STARLINK-32488          
1 62125U 24222M   26158.26056589  .00022815  00000+0  83532-3 0  9992
2 62125  43.0045 350.6845 0000354 320.6286  39.4540 15.27608383 86343
STARLINK-32490          
1 62126U 24222N   26158.79765633  .00029445  00000+0  10752-2 0  9997
2 62126  43.0008 346.9734 0001465 262.6576  97.4109 15.27579961 86534
STARLINK-32557          
1 62127U 24222P   26158.62091134  .00024227  00000+0  88738-3 0  9991
2 62127  43.0004 337.6967 0000333 258.7656 101.3159 15.27566621 86678
STARLINK-32568          
1 62128U 24222Q   26158.83493659  .00019024  00000+0  69940-3 0  9996
2 62128  43.0016 347.2502 0001288  92.8251 267.2748 15.27563753 86277
STARLINK-32462          
1 62129U 24222R   26158.24434372  .00026455  00000+0  96650-3 0  9993
2 62129  43.0039 347.1055 0000776 279.5674  80.5090 15.27612462 86480
STARLINK-32463          
1 62130U 24222S   26158.80536084  .00016990  00000+0  62482-3 0  9999
2 62130  42.9984 347.0370 0000657 167.6334 192.4534 15.27616715 86533
STARLINK-32550          
1 62131U 24222T   26158.25284623  .00016924  00000+0  62254-3 0  9992
2 62131  43.0060 350.6212 0002439 263.9427  96.1147 15.27609909 86491
STARLINK-32507          
1 62132U 24222U   26158.79122977  .00031573  00000+0  11501-2 0  9990
2 62132  43.0048 346.9240 0003025 270.7234  89.3271 15.27631197 86385
STARLINK-32245          
1 62133U 24222V   26158.23870778  .00026378  00000+0  96296-3 0  9991
2 62133  42.9807 350.5190 0004549 260.4920  99.5417 15.27630489 86605
STARLINK-32546          
1 62134U 24222W   26158.24819722  .00029564  00000+0  10784-2 0  9992
2 62134  43.0025 347.1318 0000827 254.3242 105.7518 15.27615546 86371
STARLINK-32545          
1 62135U 24222X   26158.78752150  .00030333  00000+0  11071-2 0  9999
2 62135  43.0031 347.7562 0000569  71.3200 288.7713 15.27585227 86573
STARLINK-32554          
1 62136U 24222Y   26158.22843708 -.00000740  00000+0 -17380-4 0  9991
2 62136  43.0014 350.4388 0001081 268.5302  91.5425 15.27582252 86491
STARLINK-32570          
1 62137U 24222Z   26158.23487992  .00016326  00000+0  60215-3 0  9991
2 62137  43.0004 350.4883 0002411 274.3813  85.6763 15.27542641 86599
KONDOR-FKA NO. 2        
1 62138U 24223A   26158.82904882  .00004638  00000+0  22039-3 0  9995
2 62138  97.4432   2.4034 0001747 104.2881 255.8548 15.19700289 84288
STARLINK-32529          
1 62139U 24224A   26158.30910920  .00018234  00000+0  67036-3 0  9993
2 62139  43.0032  12.2241 0004916 268.5205  91.5083 15.27578617 86127
